ONEWEB-0431             
1 51630U 22012J   25338.80421156  .00000577  00000+0  16180-2 0  9996
2 51630  87.8818  75.0084 0001650  80.6229 279.5085 13.10371105183886
ONEWEB-0434             
1 51631U 22012K   25339.31547103  .00009103  00000+0  25982-1 0  9998
2 51631  87.8819  74.9434 0001008 137.4936 222.6270 13.10459710183938
ONEWEB-0435             
1 51632U 22012L   25339.24755277  .00000326  00000+0  89686-3 0  9995
2 51632  87.8812  74.9468 0001991  97.8093 262.3261 13.10375908183918
ONEWEB-0436             
1 51633U 22012M   25339.19530396  .00000128  00000+0  29675-3 0  9995
2 51633  87.9126  44.4096 0001860  95.1834 264.9510 13.17649527188138
ONEWEB-0438             
1 51634U 22012N   25339.30728095 -.00000458  00000+0 -13484-2 0  9992
2 51634  87.8813  74.9356 0001525 111.4423 248.6867 13.10373523183954
ONEWEB-0439             
1 51635U 22012P   25339.31061594 -.00000325  00000+0 -96720-3 0  9996
2 51635  87.8814  74.9238 0001663 105.0916 255.0395 13.10376336183935
ONEWEB-0442             
1 51636U 22012Q   25339.26364240  .00000060  00000+0  12016-3 0  9995
2 51636  87.9116  44.4445 0001375 120.3511 239.7757 13.17649830188132
ONEWEB-0443             
1 51637U 22012R   25339.20711503  .00000082  00000+0  17744-3 0  9995
2 51637  87.9109  44.4611 0001880 110.3690 249.7644 13.17649191188178
ONEWEB-0444             
1 51638U 22012S   25339.30064450 -.00000634  00000+0 -18532-2 0  9999
2 51638  87.8809  74.9246 0001644 104.6686 255.4624 13.10372462183945
ONEWEB-0445             
1 51639U 22012T   25339.24588791  .00000237  00000+0  64364-3 0  9994
2 51639  87.8830  74.9013 0001396 103.4436 256.6847 13.10376843183943
ONEWEB-0446             
1 51640U 22012U   25339.29899969 -.00000601  00000+0 -17579-2 0  9995
2 51640  87.8807  74.9415 0001402 101.4132 258.7153 13.10375403183937
ONEWEB-0448             
1 51641U 22012V   25339.30397739 -.00000459  00000+0 -13523-2 0  9992
2 51641  87.8809  74.9402 0001654 105.5335 254.5975 13.10377807183908
ONEWEB-0449             
1 51642U 22012W   25339.30895427 -.00000335  00000+0 -99643-3 0  9991
2 51642  87.8820  74.9108 0001645 121.2441 238.8848 13.10375928183915
ONEWEB-0451             
1 51643U 22012X   25339.19192128 -.00000002  00000+0 -38124-4 0  9996
2 51643  87.9125  44.4056 0001749 104.9068 255.2257 13.17649734188117
ONEWEB-0452             
1 51644U 22012Y   25339.19023933  .00000074  00000+0  15789-3 0  9992
2 51644  87.9117  44.4614 0001929 109.0586 251.0755 13.17648829188122
ONEWEB-0456             
1 51646U 22012AA  25339.24256687  .00000147  00000+0  38548-3 0  9993
2 51646  87.8828  74.8922 0001755 101.4991 258.6334 13.10376645183942
