[{"OBJECT_NAME":"ONEWEB-0431","OBJECT_ID":"2022-012J","EPOCH":"2025-12-04T19:18:03.878784","MEAN_MOTION":13.10371105,"ECCENTRICITY":0.00016507,"INCLINATION":87.8818,"RA_OF_ASC_NODE":75.0084,"ARG_OF_PERICENTER":80.6229,"MEAN_ANOMALY":279.5085,"EPHEMERIS_TYPE":0,"CLASSIFICATION_TYPE":"U","NORAD_CAT_ID":51630,"ELEMENT_SET_NO":999,"REV_AT_EPOCH":18388,"BSTAR":0.0016179588,"MEAN_MOTION_DOT":5.77e-6,"MEAN_MOTION_DDOT":0},{"OBJECT_NAME":"ONEWEB-0434","OBJECT_ID":"2022-012K","EPOCH":"2025-12-05T07:34:16.696992","MEAN_MOTION":13.1045971,"ECCENTRICITY":0.0001008,"INCLINATION":87.8819,"RA_OF_ASC_NODE":74.9434,"ARG_OF_PERICENTER":137.4936,"MEAN_ANOMALY":222.627,"EPHEMERIS_TYPE":0,"CLASSIFICATION_TYPE":"U","NORAD_CAT_ID":51631,"ELEMENT_SET_NO":999,"REV_AT_EPOCH":18393,"BSTAR":0.025981765,"MEAN_MOTION_DOT":9.103e-5,"MEAN_MOTION_DDOT":0},{"OBJECT_NAME":"ONEWEB-0435","OBJECT_ID":"2022-012L","EPOCH":"2025-12-05T05:56:28.559328","MEAN_MOTION":13.10375908,"ECCENTRICITY":0.00019917,"INCLINATION":87.8812,"RA_OF_ASC_NODE":74.9468,"ARG_OF_PERICENTER":97.8093,"MEAN_ANOMALY":262.3261,"EPHEMERIS_TYPE":0,"CLASSIFICATION_TYPE":"U","NORAD_CAT_ID":51632,"ELEMENT_SET_NO":999,"REV_AT_EPOCH":18391,"BSTAR":0.00089685613,"MEAN_MOTION_DOT":3.26e-6,"MEAN_MOTION_DDOT":0},{"OBJECT_NAME":"ONEWEB-0436","OBJECT_ID":"2022-012M","EPOCH":"2025-12-05T04:41:14.262144","MEAN_MOTION":13.17649527,"ECCENTRICITY":0.00018605,"INCLINATION":87.9126,"RA_OF_ASC_NODE":44.4096,"ARG_OF_PERICENTER":95.1834,"MEAN_ANOMALY":264.951,"EPHEMERIS_TYPE":0,"CLASSIFICATION_TYPE":"U","NORAD_CAT_ID":51633,"ELEMENT_SET_NO":999,"REV_AT_EPOCH":18813,"BSTAR":0.00029675409,"MEAN_MOTION_DOT":1.28e-6,"MEAN_MOTION_DDOT":0},{"OBJECT_NAME":"ONEWEB-0438","OBJECT_ID":"2022-012N","EPOCH":"2025-12-05T07:22:29.074080","MEAN_MOTION":13.10373523,"ECCENTRICITY":0.00015256,"INCLINATION":87.8813,"RA_OF_ASC_NODE":74.9356,"ARG_OF_PERICENTER":111.4423,"MEAN_ANOMALY":248.6867,"EPHEMERIS_TYPE":0,"CLASSIFICATION_TYPE":"U","NORAD_CAT_ID":51634,"ELEMENT_SET_NO":999,"REV_AT_EPOCH":18395,"BSTAR":-0.0013483698,"MEAN_MOTION_DOT":-4.58e-6,"MEAN_MOTION_DDOT":0},{"OBJECT_NAME":"ONEWEB-0439","OBJECT_ID":"2022-012P","EPOCH":"2025-12-05T07:27:17.217216","MEAN_MOTION":13.10376336,"ECCENTRICITY":0.00016639,"INCLINATION":87.8814,"RA_OF_ASC_NODE":74.9238,"ARG_OF_PERICENTER":105.0916,"MEAN_ANOMALY":255.0395,"EPHEMERIS_TYPE":0,"CLASSIFICATION_TYPE":"U","NORAD_CAT_ID":51635,"ELEMENT_SET_NO":999,"REV_AT_EPOCH":18393,"BSTAR":-0.00096720481,"MEAN_MOTION_DOT":-3.25e-6,"MEAN_MOTION_DDOT":0},{"OBJECT_NAME":"ONEWEB-0442","OBJECT_ID":"2022-012Q","EPOCH":"2025-12-05T06:19:38.703360","MEAN_MOTION":13.1764983,"ECCENTRICITY":0.00013752,"INCLINATION":87.9116,"RA_OF_ASC_NODE":44.4445,"ARG_OF_PERICENTER":120.3511,"MEAN_ANOMALY":239.7757,"EPHEMERIS_TYPE":0,"CLASSIFICATION_TYPE":"U","NORAD_CAT_ID":51636,"ELEMENT_SET_NO":999,"REV_AT_EPOCH":18813,"BSTAR":0.00012015717,"MEAN_MOTION_DOT":6.0e-7,"MEAN_MOTION_DDOT":0},{"OBJECT_NAME":"ONEWEB-0443","OBJECT_ID":"2022-012R","EPOCH":"2025-12-05T04:58:14.738592","MEAN_MOTION":13.17649191,"ECCENTRICITY":0.00018806,"INCLINATION":87.9109,"RA_OF_ASC_NODE":44.4611,"ARG_OF_PERICENTER":110.369,"MEAN_ANOMALY":249.7644,"EPHEMERIS_TYPE":0,"CLASSIFICATION_TYPE":"U","NORAD_CAT_ID":51637,"ELEMENT_SET_NO":999,"REV_AT_EPOCH":18817,"BSTAR":0.00017743578,"MEAN_MOTION_DOT":8.2e-7,"MEAN_MOTION_DDOT":0},{"OBJECT_NAME":"ONEWEB-0444","OBJECT_ID":"2022-012S","EPOCH":"2025-12-05T07:12:55.684800","MEAN_MOTION":13.10372462,"ECCENTRICITY":0.00016448,"INCLINATION":87.8809,"RA_OF_ASC_NODE":74.9246,"ARG_OF_PERICENTER":104.6686,"MEAN_ANOMALY":255.4624,"EPHEMERIS_TYPE":0,"CLASSIFICATION_TYPE":"U","NORAD_CAT_ID":51638,"ELEMENT_SET_NO":999,"REV_AT_EPOCH":18394,"BSTAR":-0.0018531961,"MEAN_MOTION_DOT":-6.34e-6,"MEAN_MOTION_DDOT":0},{"OBJECT_NAME":"ONEWEB-0445","OBJECT_ID":"2022-012T","EPOCH":"2025-12-05T05:54:04.715424","MEAN_MOTION":13.10376843,"ECCENTRICITY":0.00013969,"INCLINATION":87.883,"RA_OF_ASC_NODE":74.9013,"ARG_OF_PERICENTER":103.4436,"MEAN_ANOMALY":256.6847,"EPHEMERIS_TYPE":0,"CLASSIFICATION_TYPE":"U","NORAD_CAT_ID":51639,"ELEMENT_SET_NO":999,"REV_AT_EPOCH":18394,"BSTAR":0.00064364158,"MEAN_MOTION_DOT":2.37e-6,"MEAN_MOTION_DDOT":0},{"OBJECT_NAME":"ONEWEB-0446","OBJECT_ID":"2022-012U","EPOCH":"2025-12-05T07:10:33.573216","MEAN_MOTION":13.10375403,"ECCENTRICITY":0.00014029,"INCLINATION":87.8807,"RA_OF_ASC_NODE":74.9415,"ARG_OF_PERICENTER":101.4132,"MEAN_ANOMALY":258.7153,"EPHEMERIS_TYPE":0,"CLASSIFICATION_TYPE":"U","NORAD_CAT_ID":51640,"ELEMENT_SET_NO":999,"REV_AT_EPOCH":18393,"BSTAR":-0.0017578813,"MEAN_MOTION_DOT":-6.01e-6,"MEAN_MOTION_DDOT":0},{"OBJECT_NAME":"ONEWEB-0448","OBJECT_ID":"2022-012V","EPOCH":"2025-12-05T07:17:43.646496","MEAN_MOTION":13.10377807,"ECCENTRICITY":0.00016543,"INCLINATION":87.8809,"RA_OF_ASC_NODE":74.9402,"ARG_OF_PERICENTER":105.5335,"MEAN_ANOMALY":254.5975,"EPHEMERIS_TYPE":0,"CLASSIFICATION_TYPE":"U","NORAD_CAT_ID":51641,"ELEMENT_SET_NO":999,"REV_AT_EPOCH":18390,"BSTAR":-0.0013522598,"MEAN_MOTION_DOT":-4.59e-6,"MEAN_MOTION_DDOT":0},{"OBJECT_NAME":"ONEWEB-0449","OBJECT_ID":"2022-012W","EPOCH":"2025-12-05T07:24:53.648928","MEAN_MOTION":13.10375928,"ECCENTRICITY":0.00016459,"INCLINATION":87.882,"RA_OF_ASC_NODE":74.9108,"ARG_OF_PERICENTER":121.2441,"MEAN_ANOMALY":238.8848,"EPHEMERIS_TYPE":0,"CLASSIFICATION_TYPE":"U","NORAD_CAT_ID":51642,"ELEMENT_SET_NO":999,"REV_AT_EPOCH":18391,"BSTAR":-0.00099643262,"MEAN_MOTION_DOT":-3.35e-6,"MEAN_MOTION_DDOT":0},{"OBJECT_NAME":"ONEWEB-0451","OBJECT_ID":"2022-012X","EPOCH":"2025-12-05T04:36:21.998592","MEAN_MOTION":13.17649734,"ECCENTRICITY":0.00017499,"INCLINATION":87.9125,"RA_OF_ASC_NODE":44.4056,"ARG_OF_PERICENTER":104.9068,"MEAN_ANOMALY":255.2257,"EPHEMERIS_TYPE":0,"CLASSIFICATION_TYPE":"U","NORAD_CAT_ID":51643,"ELEMENT_SET_NO":999,"REV_AT_EPOCH":18811,"BSTAR":-3.8124369e-5,"MEAN_MOTION_DOT":-2.0e-8,"MEAN_MOTION_DDOT":0},{"OBJECT_NAME":"ONEWEB-0452","OBJECT_ID":"2022-012Y","EPOCH":"2025-12-05T04:33:56.678112","MEAN_MOTION":13.17648829,"ECCENTRICITY":0.00019294,"INCLINATION":87.9117,"RA_OF_ASC_NODE":44.4614,"ARG_OF_PERICENTER":109.0586,"MEAN_ANOMALY":251.0755,"EPHEMERIS_TYPE":0,"CLASSIFICATION_TYPE":"U","NORAD_CAT_ID":51644,"ELEMENT_SET_NO":999,"REV_AT_EPOCH":18812,"BSTAR":0.00015788985,"MEAN_MOTION_DOT":7.4e-7,"MEAN_MOTION_DDOT":0},{"OBJECT_NAME":"ONEWEB-0456","OBJECT_ID":"2022-012AA","EPOCH":"2025-12-05T05:49:17.777568","MEAN_MOTION":13.10376645,"ECCENTRICITY":0.00017559,"INCLINATION":87.8828,"RA_OF_ASC_NODE":74.8922,"ARG_OF_PERICENTER":101.4991,"MEAN_ANOMALY":258.6334,"EPHEMERIS_TYPE":0,"CLASSIFICATION_TYPE":"U","NORAD_CAT_ID":51646,"ELEMENT_SET_NO":999,"REV_AT_EPOCH":18394,"BSTAR":0.00038547987,"MEAN_MOTION_DOT":1.47e-6,"MEAN_MOTION_DDOT":0}]
